NORAD_CAT_ID,OBJECT_NAME,OBJECT_TYPE,EPOCH,MEAN_MOTION,ECCENTRICITY,INCLINATION,RA_OF_ASC_NODE,ARG_OF_PERICENTER,MEAN_ANOMALY,BSTAR,MEAN_MOTION_DOT,MEAN_MOTION_DDOT,TLE_LINE0,TLE_LINE1,TLE_LINE2,SEMIMAJOR_AXIS,PERIOD,APOGEE,PERIGEE,DECAYED
54788.0,STARLINK-5399,PAYLOAD,2023-07-15 00:14:00,15.0885623,0.0001084,53.2183,57.5636,94.5424,265.5692,0.00014703,2.054e-05,0.0,0 STARLINK-5399,1 54788U 22175AG  23196.00973170  .00002054  00000-0  14703-3 0  9996,2 54788  53.2183  57.5636 0001084  94.5424 265.5692 15.08856230 31736,6917.831,95.437,540.446,538.946,0.0
54788.0,STARLINK-5399,PAYLOAD,2023-07-15 14:32:30,15.08840561,0.0001008,53.2184,54.8872,91.507,268.6037,8.1404e-05,1.008e-05,0.0,0 STARLINK-5399,1 54788U 22175AG  23196.60590439  .00001008  00000-0  81404-4 0  9996,2 54788  53.2184  54.8872 0001008  91.5070 268.6037 15.08840561 31826,6917.879,95.438,540.441,539.046,0.0
54788.0,STARLINK-5399,PAYLOAD,2023-07-16 08:01:45,15.08837198,0.0001097,53.2183,51.6159,85.6297,274.482,5.021e-05,5.11e-06,0.0,0 STARLINK-5399,1 54788U 22175AG  23197.33454947  .00000511  00000-0  50210-4 0  9999,2 54788  53.2183  51.6159 0001097  85.6297 274.4820 15.08837198 31930,6917.889,95.438,540.513,538.995,0.0
54788.0,STARLINK-5399,PAYLOAD,2023-07-16 20:44:49,15.08843899,0.0001148,53.217,49.2363,86.4517,273.6606,-5.1039e-06,-3.69e-06,0.0,0 STARLINK-5399,1 54788U 22175AG  23197.86446496 -.00000369  00000-0 -51039-5 0  9991,2 54788  53.2170  49.2363 0001148  86.4517 273.6606 15.08843899 32015,6917.868,95.437,540.528,538.939,0.0
54788.0,STARLINK-5399,PAYLOAD,2023-07-18 01:21:45,15.08856608,0.000115,53.2184,43.8849,80.5821,279.5301,0.00032564,4.901e-05,0.0,0 STARLINK-5399,1 54788U 22175AG  23199.05677762  .00004901  00000-0  32564-3 0  9990,2 54788  53.2184  43.8849 0001150  80.5821 279.5301 15.08856608 32193,6917.83,95.437,540.49,538.899,0.0
54788.0,STARLINK-5399,PAYLOAD,2023-07-18 15:40:14,15.08835666,0.0001278,53.2187,41.2146,60.9153,299.1967,-3.8485e-06,-3.49e-06,0.0,0 STARLINK-5399,1 54788U 22175AG  23199.65294897 -.00000349  00000-0 -38485-5 0  9994,2 54788  53.2187  41.2146 0001278  60.9153 299.1967 15.08835666 32286,6917.894,95.438,540.643,538.875,0.0
54788.0,STARLINK-5399,PAYLOAD,2023-07-18 23:37:09,15.08844164,0.0001157,53.2178,39.7218,99.216,260.8963,8.2921e-05,1.032e-05,0.0,0 STARLINK-5399,1 54788U 22175AG  23199.98414344  .00001032  00000-0  82921-4 0  9992,2 54788  53.2178  39.7218 0001157  99.2160 260.8963 15.08844164 32337,6917.868,95.437,540.533,538.932,0.0
54788.0,STARLINK-5399,PAYLOAD,2023-07-19 17:06:24,15.08837022,0.0001525,53.2178,36.4497,124.4114,235.7023,-0.00010045,-1.886e-05,0.0,0 STARLINK-5399,1 54788U 22175AG  23200.71278749 -.00001886  00000-0 -10045-3 0  9999,2 54788  53.2178  36.4497 0001525 124.4114 235.7023 15.08837022 32444,6917.889,95.438,540.809,538.7,0.0
54788.0,STARLINK-5399,PAYLOAD,2023-07-20 23:18:44,15.08846626,0.00011,53.2174,30.8007,107.4574,252.6538,0.0002059,2.991e-05,0.0,0 STARLINK-5399,1 54788U 22175AG  23201.97134833  .00002991  00000-0  20590-3 0  9995,2 54788  53.2174  30.8007 0001100 107.4574 252.6538 15.08846626 32635,6917.86,95.437,540.486,538.964,0.0
54788.0,STARLINK-5399,PAYLOAD,2023-07-24 13:09:34,15.08847117,7.84e-05,53.2174,14.744,66.4919,293.6156,0.00039938,6.075e-05,0.0,0 STARLINK-5399,1 54788U 22175AG  23205.54831633  .00006075  00000-0  39938-3 0  9997,2 54788  53.2174  14.7440 0000784  66.4919 293.6156 15.08847117 35338,6917.859,95.437,540.266,539.181,0.0
54788.0,STARLINK-5399,PAYLOAD,2023-07-25 13:00:21,15.08844555,0.0001302,53.2204,10.2868,100.062,260.0519,0.00010738,1.422e-05,0.0,0 STARLINK-5399,1 54788U 22175AG  23206.54191443  .00001422  00000-0  10738-3 0  9994,2 54788  53.2204  10.2868 0001302 100.0620 260.0519 15.08844555 35488,6917.866,95.437,540.632,538.831,0.0
54788.0,STARLINK-5399,PAYLOAD,2023-07-26 12:51:08,15.08844223,0.0001095,53.2201,5.8262,100.3943,259.7172,0.00016801,2.387e-05,0.0,0 STARLINK-5399,1 54788U 22175AG  23207.53551404  .00002387  00000-0  16801-3 0  9999,2 54788  53.2201   5.8262 0001095 100.3943 259.7172 15.08844223 35632,6917.867,95.437,540.49,538.975,0.0
54788.0,STARLINK-5399,PAYLOAD,2023-07-26 19:12:40,15.08851282,0.0001252,53.2186,4.6364,76.047,284.0661,0.00025651,3.798e-05,0.0,0 STARLINK-5399,1 54788U 22175AG  23207.80047101  .00003798  00000-0  25651-3 0  9993,2 54788  53.2186   4.6364 0001252  76.0470 284.0661 15.08851282 35674,6917.846,95.437,540.577,538.845,0.0
54788.0,STARLINK-5399,PAYLOAD,2023-07-27 11:06:32,15.08836014,0.0001206,53.2191,1.6628,101.8447,258.268,2.32e-06,-2.51e-06,0.0,0 STARLINK-5399,1 54788U 22175AG  23208.46287721 -.00000251  00000-0  23200-5 0  9992,2 54788  53.2191   1.6628 0001206 101.8447 258.2680 15.08836014 33612,6917.893,95.438,540.592,538.923,0.0
54788.0,STARLINK-5399,PAYLOAD,2023-07-27 20:38:51,15.08841254,9.42e-05,53.2192,359.878,92.916,267.194,0.00013463,1.856e-05,0.0,0 STARLINK-5399,1 54788U 22175AG  23208.86031666  .00001856  00000-0  13463-3 0  9990,2 54788  53.2192 359.8780 0000942  92.9160 267.1940 15.08841254 35834,6917.877,95.437,540.393,539.09,0.0
54788.0,STARLINK-5399,PAYLOAD,2023-07-28 03:00:24,15.08834104,9.42e-05,53.2176,358.6859,98.6544,261.4555,-1.8661e-05,-5.85e-06,0.0,0 STARLINK-5399,1 54788U 22175AG  23209.12527945 -.00000585  00000-0 -18661-4 0  9996,2 54788  53.2176 358.6859 0000942  98.6544 261.4555 15.08834104 35878,6917.898,95.438,540.415,539.112,0.0
54788.0,STARLINK-5399,PAYLOAD,2023-07-28 18:54:14,15.08853827,7.43e-05,53.216,355.7102,96.4224,263.6853,0.00031371,4.71e-05,0.0,0 STARLINK-5399,1 54788U 22175AG  23209.78767078  .00004710  00000-0  31371-3 0  9995,2 54788  53.2160 355.7102 0000743  96.4224 263.6853 15.08853827 33810,6917.838,95.437,540.217,539.189,0.0
54788.0,STARLINK-5399,PAYLOAD,2023-07-29 02:51:10,15.08837905,2.8e-05,53.2177,354.2263,142.6535,217.4477,-0.00010762,-2e-05,0.0,0 STARLINK-5399,1 54788U 22175AG  23210.11887412 -.00002000  00000-0 -10762-3 0  9992,2 54788  53.2177 354.2263 0000280 142.6535 217.4477 15.08837905 33868,6917.887,95.438,539.945,539.558,0.0
54788.0,STARLINK-5399,PAYLOAD,2023-07-29 18:45:01,15.08854336,8.81e-05,53.2162,351.2523,89.6368,270.4725,0.00045434,6.953e-05,0.0,0 STARLINK-5399,1 54788U 22175AG  23210.78127201  .00006953  00000-0  45434-3 0  9991,2 54788  53.2162 351.2523 0000881  89.6368 270.4725 15.08854336 33962,6917.837,95.437,540.311,539.092,0.0
54788.0,STARLINK-5399,PAYLOAD,2023-07-30 09:03:30,15.08833791,6.94e-05,53.2168,348.5743,110.0938,250.0129,0.00019646,2.84e-05,0.0,0 STARLINK-5399,1 54788U 22175AG  23211.37743713  .00002840  00000-0  19646-3 0  9996,2 54788  53.2168 348.5743 0000694 110.0938 250.0129 15.08833791 34050,6917.899,95.438,540.244,539.284,0.0
54788.0,STARLINK-5399,PAYLOAD,2023-07-30 15:25:03,15.08845719,7.68e-05,53.2161,347.3872,84.2197,275.8883,0.0015353,0.00024235,0.0,0 STARLINK-5399,1 54788U 22175AG  23211.64239778  .00024235  00000-0  15353-2 0  9999,2 54788  53.2161 347.3872 0000768  84.2197 275.8883 15.08845719 34093,6917.863,95.437,540.259,539.197,0.0
54788.0,STARLINK-5399,PAYLOAD,2023-07-31 02:32:45,15.0884578,9.47e-05,53.2171,345.3054,77.4967,282.6131,0.0014105,0.00022235,0.0,0 STARLINK-5399,1 54788U 22175AG  23212.10608074  .00022235  00000-0  14105-2 0  9992,2 54788  53.2171 345.3054 0000947  77.4967 282.6131 15.08845780 34160,6917.863,95.437,540.383,539.073,0.0
54788.0,STARLINK-5399,PAYLOAD,2023-07-31 18:26:36,15.08850879,9.67e-05,53.2176,342.3306,85.5332,274.577,0.00089648,0.00014013,0.0,0 STARLINK-5399,1 54788U 22175AG  23212.76847979  .00014013  00000-0  89648-3 0  9993,2 54788  53.2176 342.3306 0000967  85.5332 274.5770 15.08850879 34265,6917.847,95.437,540.381,539.043,0.0
54788.0,STARLINK-5399,PAYLOAD,2023-08-01 08:45:05,15.08840817,0.0001372,53.218,339.661,46.827,313.2836,0.00034254,5.168e-05,0.0,0 STARLINK-5399,1 54788U 22175AG  23213.36464390  .00005168  00000-0  34254-3 0  9996,2 54788  53.2180 339.6610 0001372  46.8270 313.2836 15.08840817 34354,6917.878,95.438,540.692,538.794,0.0
54788.0,STARLINK-5399,PAYLOAD,2023-08-01 18:17:23,15.08853507,0.0001011,53.2176,337.8706,82.8969,277.2138,0.0007447,0.00011588,0.0,0 STARLINK-5399,1 54788U 22175AG  23213.76208009  .00011588  00000-0  74470-3 0  9990,2 54788  53.2176 337.8706 0001011  82.8969 277.2138 15.08853507 34411,6917.839,95.437,540.403,539.005,0.0
54788.0,STARLINK-5399,PAYLOAD,2023-08-02 08:35:51,15.08847127,0.0001352,53.2187,335.1921,103.7917,256.3226,0.00033285,5.014e-05,0.0,0 STARLINK-5399,1 54788U 22175AG  23214.35824041  .00005014  00000-0  33285-3 0  9992,2 54788  53.2187 335.1921 0001352 103.7917 256.3226 15.08847127 34504,6917.859,95.437,540.659,538.788,0.0
54788.0,STARLINK-5399,PAYLOAD,2023-08-03 08:26:38,15.08848845,0.0001102,53.2172,330.7347,86.0553,274.0565,0.00032883,4.951e-05,0.0,0 STARLINK-5399,1 54788U 22175AG  23215.35183829  .00004951  00000-0  32883-3 0  9997,2 54788  53.2172 330.7347 0001102  86.0553 274.0565 15.08848845 34650,6917.853,95.437,540.481,538.956,0.0
54788.0,STARLINK-5399,PAYLOAD,2023-08-03 19:34:20,15.08864859,9.99e-05,53.2173,328.652,103.4833,256.627,0.00090454,0.00014147,0.0,0 STARLINK-5399,1 54788U 22175AG  23215.81551212  .00014147  00000-0  90454-3 0  9999,2 54788  53.2173 328.6520 0000999 103.4833 256.6270 15.08864859 34728,6917.804,95.436,540.36,538.978,0.0
54788.0,STARLINK-5399,PAYLOAD,2023-08-04 14:38:58,15.08839084,0.0001104,53.2163,325.0857,82.2493,277.8624,0.00069805,0.00010839,0.0,0 STARLINK-5399,1 54788U 22175AG  23216.61040299  .00010839  00000-0  69805-3 0  9996,2 54788  53.2163 325.0857 0001104  82.2493 277.8624 15.08839084 34849,6917.883,95.438,540.512,538.984,0.0
54788.0,STARLINK-5399,PAYLOAD,2023-08-04 17:49:45,15.08841677,0.00011,53.216,324.4914,89.078,271.0338,0.0015171,0.0002394,0.0,0 STARLINK-5399,1 54788U 22175AG  23216.74288370  .00023940  00000-0  15171-2 0  9997,2 54788  53.2160 324.4914 0001100  89.0780 271.0338 15.08841677 34864,6917.875,95.437,540.501,538.979,0.0
